API VERSION: 1.2
API SOURCE: NASA/JPL Horizons API



*******************************************************************************
Ephemeris / API_USER Mon Apr 13 11:58:33 2026 Pasadena, USA      / Horizons
*******************************************************************************
Target body name: Venus (299)                     {source: DE441}
Center body name: Sun (10)                        {source: DE441}
Center-site name: BODY CENTER
*******************************************************************************
Start time      : A.D. 2025-Jan-24 03:41:00.0000 TDB
Stop  time      : A.D. 2025-Jan-26 03:41:00.0000 TDB
Step-size       : 60 minutes
*******************************************************************************
Center geodetic : 0.0, 0.0, 0.0                   {E-lon(deg),Lat(deg),Alt(km)}
Center cylindric: 0.0, 0.0, 0.0                   {E-lon(deg),Dxy(km),Dz(km)}
Center radii    : 695700.0, 695700.0, 695700.0 km {Equator_a, b, pole_c}
Output units    : AU-D
Calendar mode   : Mixed Julian/Gregorian
Output type     : GEOMETRIC cartesian states
Output format   : 3 (position, velocity, LT, range, range-rate)
Reference frame : Ecliptic of J2000.0
*******************************************************************************
            JDTDB,            Calendar Date (TDB),                      X,                      Y,                      Z,                     VX,                     VY,                     VZ,                     LT,                     RG,                     RR,
**************************************************************************************************************************************************************************************************************************************************************************
$$SOE
2460700.903472222, A.D. 2025-Jan-25 09:41:00.0000, -5.066659114208759E-03,  7.195611338688995E-01,  1.017453003527948E-02, -2.029425410526996E-02, -2.494361957335569E-04,  1.167566824777710E-03,  4.156356963579661E-03,  7.196508997220213E-01, -9.001736897650602E-05,
2460700.945138889, A.D. 2025-Jan-25 10:41:00.0000, -5.912249350096092E-03,  7.195502447747699E-01,  1.022317162937452E-02, -2.029407255456801E-02, -2.732403244597423E-04,  1.167229422709388E-03,  4.156335315750605E-03,  7.196471515166114E-01, -8.989646970775276E-05,
2460700.986805555, A.D. 2025-Jan-25 11:41:00.0000, -6.757831438522379E-03,  7.195383638419286E-01,  1.027179913141874E-02, -2.029386302703943E-02, -2.970444483410798E-04,  1.166890406407214E-03,  4.156313697030697E-03,  7.196434083512940E-01, -8.977544456287558E-05,
2460701.028472222, A.D. 2025-Jan-25 12:41:00.0000, -7.603404213774265E-03,  7.195254910712715E-01,  1.032041247416113E-02, -2.029362552210462E-02, -3.208485340605726E-04,  1.166549776295282E-03,  4.156292107450207E-03,  7.196396702313105E-01, -8.965429370806941E-05,
2460701.070138889, A.D. 2025-Jan-25 13:41:00.0000, -8.448966510115155E-03,  7.195116264650829E-01,  1.036901159036855E-02, -2.029336003922432E-02, -3.446525482992166E-04,  1.166207532800042E-03,  4.156270547039367E-03,  7.196359371618953E-01, -8.953301730971743E-05,
2460701.111805555, A.D. 2025-Jan-25 14:41:00.0000, -9.294517161786775E-03,  7.194967700270355E-01,  1.041759641282565E-02, -2.029306657789961E-02, -3.684564577360497E-04,  1.165863676350296E-03,  4.156249015828370E-03,  7.196322091482759E-01, -8.941161553439163E-05,
2460701.153472222, A.D. 2025-Jan-25 15:41:00.0000, -1.014005500301088E-02,  7.194809217621900E-01,  1.046616687433495E-02, -2.029274513767189E-02, -3.922602290482038E-04,  1.165518207377201E-03,  4.156227513847364E-03,  7.196284861956732E-01, -8.929008854885398E-05,
2460701.195138889, A.D. 2025-Jan-25 16:41:00.0000, -1.098557886799106E-02,  7.194640816769960E-01,  1.051472290771697E-02, -2.029239571812291E-02, -4.160638289109556E-04,  1.165171126314266E-03,  4.156206041126464E-03,  7.196247683093002E-01, -8.916843652005235E-05,
2460701.236805555, A.D. 2025-Jan-25 17:41:00.0000, -1.183108759091420E-02,  7.194462497792915E-01,  1.056326444581038E-02, -2.029201831887475E-02, -4.398672239977759E-04,  1.164822433597353E-03,  4.156184597695739E-03,  7.196210554943641E-01, -8.904665961512499E-05,
2460701.278472222, A.D. 2025-Jan-25 18:41:00.0000, -1.267658000595230E-02,  7.194274260783033E-01,  1.061179142147205E-02, -2.029161293958986E-02, -4.636703809803830E-04,  1.164472129664678E-03,  4.156163183585221E-03,  7.196173477560646E-01, -8.892475800139886E-05,
2460701.320138889, A.D. 2025-Jan-25 19:41:00.0000, -1.352205494726423E-02,  7.194076105846464E-01,  1.066030376757721E-02, -2.029117957997103E-02, -4.874732665287910E-04,  1.164120214956806E-03,  4.156141798824900E-03,  7.196136450995938E-01, -8.880273184638502E-05,
2460701.361805555, A.D. 2025-Jan-25 20:41:00.0000, -1.436751124899724E-02,  7.193868033103255E-01,  1.070880141701940E-02, -2.029071823976144E-02, -5.112758473113618E-04,  1.163766689916654E-03,  4.156120443444726E-03,  7.196099475301382E-01, -8.868058131778467E-05,
2460701.403472222, A.D. 2025-Jan-25 21:41:00.0000, -1.521294774528868E-02,  7.193650042687331E-01,  1.075728430271074E-02, -2.029022891874460E-02, -5.350780899948552E-04,  1.163411554989492E-03,  4.156099117474610E-03,  7.196062550528758E-01, -8.855830658348642E-05,
2460701.445138889, A.D. 2025-Jan-25 22:41:00.0000, -1.605836327026783E-02,  7.193422134746512E-01,  1.080575235758186E-02, -2.028971161674441E-02, -5.588799612444811E-04,  1.163054810622940E-03,  4.156077820944419E-03,  7.196025676729788E-01, -8.843590781156301E-05,
2460701.486805555, A.D. 2025-Jan-25 23:41:00.0000, -1.690375665805737E-02,  7.193184309442511E-01,  1.085420551458222E-02, -2.028916633362515E-02, -5.826814277239497E-04,  1.162696457266967E-03,  4.156056553883986E-03,  7.195988853956119E-01, -8.831338517027821E-05,
2460701.528472222, A.D. 2025-Jan-26 00:41:00.0000, -1.774912674277525E-02,  7.192936566950925E-01,  1.090264370667993E-02, -2.028859306929148E-02, -6.064824560955209E-04,  1.162336495373893E-03,  4.156035316323096E-03,  7.195952082259327E-01, -8.819073882807787E-05,
2460701.570138889, A.D. 2025-Jan-26 01:41:00.0000, -1.859447235853624E-02,  7.192678907461244E-01,  1.095106686686225E-02, -2.028799182368845E-02, -6.302830130200587E-04,  1.161974925398389E-03,  4.156014108291498E-03,  7.195915361690919E-01, -8.806796895359695E-05,
2460701.611805555, A.D. 2025-Jan-26 02:41:00.0000, -1.943979233945368E-02,  7.192411331176850E-01,  1.099947492813504E-02, -2.028736259680149E-02, -6.540830651570772E-04,  1.161611747797471E-03,  4.155992929818898E-03,  7.195878692302332E-01, -8.794507571565339E-05,
2460701.653472222, A.D. 2025-Jan-26 03:41:00.0000, -2.028508551964110E-02,  7.192133838315019E-01,  1.104786782352367E-02, -2.028670538865644E-02, -6.778825791647963E-04,  1.161246963030508E-03,  4.155971780934966E-03,  7.195842074144934E-01, -8.782205928325566E-05,
